NORAD_CAT_ID,OBJECT_NAME,OBJECT_TYPE,EPOCH,MEAN_MOTION,ECCENTRICITY,INCLINATION,RA_OF_ASC_NODE,ARG_OF_PERICENTER,MEAN_ANOMALY,BSTAR,MEAN_MOTION_DOT,MEAN_MOTION_DDOT,TLE_LINE0,TLE_LINE1,TLE_LINE2,SEMIMAJOR_AXIS,PERIOD,APOGEE,PERIGEE,DECAYED
51125.0,STARLINK-3387,PAYLOAD,2023-03-24 05:58:28,15.08867479,0.0001533,53.2153,113.9061,102.6988,257.4175,4.1357e-05,3.71e-06,0.0,0 STARLINK-3387,1 51125U 22005X   23083.24893886  .00000371  00000-0  41357-4 0  9992,2 51125  53.2153 113.9061 0001533 102.6988 257.4175 15.08867479 66583,6917.796,95.436,540.722,538.601,0.0
51125.0,STARLINK-3387,PAYLOAD,2023-03-24 09:09:14,15.08871384,0.0001414,53.2143,113.3074,97.6198,262.4955,0.00047452,7.279e-05,0.0,0 STARLINK-3387,1 51125U 22005X   23083.38141772  .00007279  00000-0  47452-3 0  9992,2 51125  53.2143 113.3074 0001414  97.6198 262.4955 15.08871384 65484,6917.784,95.436,540.628,538.671,0.0
51125.0,STARLINK-3387,PAYLOAD,2023-03-24 18:41:33,15.0884575,0.0001527,53.2154,111.5267,88.1488,271.9679,4.7015e-05,4.6e-06,0.0,0 STARLINK-3387,1 51125U 22005X   23083.77886540  .00000460  00000-0  47015-4 0  9995,2 51125  53.2154 111.5267 0001527  88.1488 271.9679 15.08845750 66669,6917.863,95.437,540.784,538.671,0.0
51125.0,STARLINK-3387,PAYLOAD,2023-03-25 02:38:31,15.08812775,0.0001326,53.2162,110.0391,97.5137,262.6006,-0.00041975,-6.957e-05,0.0,0 STARLINK-3387,1 51125U 22005X   23084.11008322 -.00006957  00000-0 -41975-3 0  9995,2 51125  53.2162 110.0391 0001326  97.5137 262.6006 15.08812775 66710,6917.964,95.439,540.746,538.911,0.0
51125.0,STARLINK-3387,PAYLOAD,2023-03-25 18:32:23,15.08820623,0.0001485,53.2168,107.0651,92.1967,267.9195,-0.00012741,-2.314e-05,0.0,0 STARLINK-3387,1 51125U 22005X   23084.77248899 -.00002314  00000-0 -12741-3 0  9994,2 51125  53.2168 107.0651 0001485  92.1967 267.9195 15.08820623 66818,6917.94,95.439,540.832,538.777,0.0
51125.0,STARLINK-3387,PAYLOAD,2023-03-26 02:29:18,15.08831086,0.0001109,53.2167,105.5782,86.5233,273.5885,-6.2128e-05,-1.276e-05,0.0,0 STARLINK-3387,1 51125U 22005X   23085.10368697 -.00001276  00000-0 -62128-4 0  9992,2 51125  53.2167 105.5782 0001109  86.5233 273.5885 15.08831086 66860,6917.908,95.438,540.54,539.005,0.0
51125.0,STARLINK-3387,PAYLOAD,2023-03-26 18:23:10,15.08842697,0.000106,53.2156,102.6037,92.7332,267.3781,0.00048395,7.423e-05,0.0,0 STARLINK-3387,1 51125U 22005X   23085.76608900  .00007423  00000-0  48395-3 0  9995,2 51125  53.2156 102.6037 0001060  92.7332 267.3781 15.08842697 65847,6917.872,95.437,540.47,539.004,0.0
51125.0,STARLINK-3387,PAYLOAD,2023-03-27 00:44:42,15.08852152,0.0001158,53.215,101.4138,78.9419,281.1704,0.00087733,0.00013707,0.0,0 STARLINK-3387,1 51125U 22005X   23086.03105020  .00013707  00000-0  87733-3 0  9992,2 51125  53.2150 101.4138 0001158  78.9419 281.1704 15.08852152 67006,6917.843,95.437,540.509,538.907,0.0
51125.0,STARLINK-3387,PAYLOAD,2023-03-27 08:41:37,15.08875752,0.0001152,53.2147,99.9268,80.1845,279.9278,0.0012189,0.00019183,0.0,0 STARLINK-3387,1 51125U 22005X   23086.36224183  .00019183  00000-0  12189-2 0  9996,2 51125  53.2147  99.9268 0001152  80.1845 279.9278 15.08875752 67056,6917.771,95.435,540.433,538.839,0.0
51125.0,STARLINK-3387,PAYLOAD,2023-03-27 18:13:56,15.0886635,0.0001602,53.2151,98.1463,65.4017,294.7142,0.00057304,8.85e-05,0.0,0 STARLINK-3387,1 51125U 22005X   23086.75967930  .00008850  00000-0  57304-3 0  9991,2 51125  53.2151  98.1463 0001602  65.4017 294.7142 15.08866350 67112,6917.8,95.436,540.773,538.557,0.0
51125.0,STARLINK-3387,PAYLOAD,2023-03-28 05:21:37,15.08853363,0.0001301,53.2157,96.0618,95.3303,264.7838,9.3277e-05,1.197e-05,0.0,0 STARLINK-3387,1 51125U 22005X   23087.22335606  .00001197  00000-0  93277-4 0  9990,2 51125  53.2157  96.0618 0001301  95.3303 264.7838 15.08853363 67189,6917.84,95.437,540.605,538.805,0.0
51125.0,STARLINK-3387,PAYLOAD,2023-03-28 06:57:01,15.08854229,0.0001227,53.2156,95.7642,89.845,270.2683,0.000128,1.751e-05,0.0,0 STARLINK-3387,1 51125U 22005X   23087.28959597  .00001751  00000-0  12800-3 0  9995,2 51125  53.2156  95.7642 0001227  89.8450 270.2683 15.08854229 66078,6917.837,95.437,540.551,538.853,0.0
51125.0,STARLINK-3387,PAYLOAD,2023-03-28 18:04:43,15.08848046,0.0001156,53.2148,93.6826,88.3059,271.8065,-4.3644e-06,-3.57e-06,0.0,0 STARLINK-3387,1 51125U 22005X   23087.75327586 -.00000357  00000-0 -43644-5 0  9999,2 51125  53.2148  93.6826 0001156  88.3059 271.8065 15.08848046 67263,6917.856,95.437,540.52,538.921,0.0
51125.0,STARLINK-3387,PAYLOAD,2023-03-29 09:58:34,15.08849617,0.0001369,53.2152,90.7092,79.7689,280.3457,-9.6969e-06,-4.42e-06,0.0,0 STARLINK-3387,1 51125U 22005X   23088.41567506 -.00000442  00000-0 -96969-5 0  9994,2 51125  53.2152  90.7092 0001369  79.7689 280.3457 15.08849617 66242,6917.851,95.437,540.663,538.769,0.0
51125.0,STARLINK-3387,PAYLOAD,2023-03-30 06:38:35,15.08844955,0.0001254,53.2144,86.8432,91.0816,269.032,0.00016196,2.291e-05,0.0,0 STARLINK-3387,1 51125U 22005X   23089.27679757  .00002291  00000-0  16196-3 0  9995,2 51125  53.2144  86.8432 0001254  91.0816 269.0320 15.08844955 67490,6917.865,95.437,540.598,538.863,0.0
51125.0,STARLINK-3387,PAYLOAD,2023-03-31 06:29:24,15.08825483,0.000153,53.2151,82.3825,98.5146,261.6019,2.3665e-05,8.9e-07,0.0,0 STARLINK-3387,1 51125U 22005X   23090.27041675  .00000089  00000-0  23665-4 0  9992,2 51125  53.2151  82.3825 0001530  98.5146 261.6019 15.08825483 67645,6917.925,95.438,540.848,538.731,0.0
51125.0,STARLINK-3387,PAYLOAD,2023-03-31 16:01:42,15.08836027,0.0001503,53.2162,80.599,97.0386,263.0777,0.0002388,3.514e-05,0.0,0 STARLINK-3387,1 51125U 22005X   23090.66785609  .00003514  00000-0  23880-3 0  9991,2 51125  53.2162  80.5990 0001503  97.0386 263.0777 15.08836027 67700,6917.893,95.438,540.797,538.718,0.0
51125.0,STARLINK-3387,PAYLOAD,2023-04-01 03:09:24,15.08855239,0.0001411,53.2158,78.5165,103.8888,256.2261,0.00074687,0.00011623,0.0,0 STARLINK-3387,1 51125U 22005X   23091.13153245  .00011623  00000-0  74687-3 0  9990,2 51125  53.2158  78.5165 0001411 103.8888 256.2261 15.08855239 67772,6917.834,95.437,540.675,538.723,0.0
51125.0,STARLINK-3387,PAYLOAD,2023-04-01 06:20:10,15.08864301,0.0001421,53.2157,77.9218,106.4674,253.6474,0.0011045,0.00017345,0.0,0 STARLINK-3387,1 51125U 22005X   23091.26401138  .00017345  00000-0  11045-2 0  9996,2 51125  53.2157  77.9218 0001421 106.4674 253.6474 15.08864301 66671,6917.806,95.436,540.654,538.688,0.0
51125.0,STARLINK-3387,PAYLOAD,2023-04-02 06:10:58,15.08828693,0.0001279,53.2156,73.4614,77.0632,283.0503,5.9306e-05,6.56e-06,0.0,0 STARLINK-3387,1 51125U 22005X   23092.25761661  .00000656  00000-0  59306-4 0  9997,2 51125  53.2156  73.4614 0001279  77.0632 283.0503 15.08828693 67944,6917.915,95.438,540.665,538.895,0.0
51125.0,STARLINK-3387,PAYLOAD,2023-04-02 07:46:21,15.08825919,9.95e-05,53.2155,73.1645,75.3258,284.7845,0.0008971,0.00014013,0.0,0 STARLINK-3387,1 51125U 22005X   23092.32385995  .00014013  00000-0  89710-3 0  9990,2 51125  53.2155  73.1645 0000995  75.3258 284.7845 15.08825919 66835,6917.923,95.438,540.477,539.1,0.0
51125.0,STARLINK-3387,PAYLOAD,2023-04-02 15:43:17,15.08830189,0.0001103,53.2153,71.6772,84.0537,276.0581,0.00085657,0.00013367,0.0,0 STARLINK-3387,1 51125U 22005X   23092.65506292  .00013367  00000-0  85657-3 0  9998,2 51125  53.2153  71.6772 0001103  84.0537 276.0581 15.08830189 66887,6917.91,95.438,540.538,539.012,0.0
51125.0,STARLINK-3387,PAYLOAD,2023-04-03 07:37:08,15.08853922,0.0001215,53.2153,68.7032,81.3748,278.7381,0.0011439,0.00017971,0.0,0 STARLINK-3387,1 51125U 22005X   23093.31746212  .00017971  00000-0  11439-2 0  9991,2 51125  53.2153  68.7032 0001215  81.3748 278.7381 15.08853922 68105,6917.838,95.437,540.543,538.862,0.0
51125.0,STARLINK-3387,PAYLOAD,2023-04-04 04:17:08,15.08877665,0.0001222,53.2149,64.837,86.0476,274.0656,0.0011675,0.00018361,0.0,0 STARLINK-3387,1 51125U 22005X   23094.17857048  .00018361  00000-0  11675-2 0  9992,2 51125  53.2149  64.8370 0001222  86.0476 274.0656 15.08877665 68238,6917.765,95.435,540.476,538.785,0.0
51125.0,STARLINK-3387,PAYLOAD,2023-04-04 07:27:54,15.0888416,0.0001231,53.2154,64.2422,87.7322,272.3811,0.0013605,0.00021457,0.0,0 STARLINK-3387,1 51125U 22005X   23094.31104700  .00021457  00000-0  13605-2 0  9993,2 51125  53.2154  64.2422 0001231  87.7322 272.3811 15.08884160 67134,6917.745,95.435,540.462,538.759,0.0
51125.0,STARLINK-3387,PAYLOAD,2023-04-04 15:24:49,15.08896835,0.0001226,53.2153,62.7555,86.4132,273.7,0.0012994,0.00020485,0.0,0 STARLINK-3387,1 51125U 22005X   23094.64223573  .00020485  00000-0  12994-2 0  9999,2 51125  53.2153  62.7555 0001226  86.4132 273.7000 15.08896835 67184,6917.707,95.434,540.42,538.724,0.0
51125.0,STARLINK-3387,PAYLOAD,2023-04-05 04:07:55,15.08848562,0.0001209,53.2155,60.3763,102.1201,257.9927,0.00021969,3.211e-05,0.0,0 STARLINK-3387,1 51125U 22005X   23095.17216784  .00003211  00000-0  21969-3 0  9995,2 51125  53.2155  60.3763 0001209 102.1201 257.9927 15.08848562 68384,6917.854,95.437,540.556,538.883,0.0
51125.0,STARLINK-3387,PAYLOAD,2023-04-05 07:18:41,15.08847826,0.0001206,53.2159,59.7812,99.6001,260.5127,0.00032484,4.887e-05,0.0,0 STARLINK-3387,1 51125U 22005X   23095.30464815  .00004887  00000-0  32484-3 0  9994,2 51125  53.2159  59.7812 0001206  99.6001 260.5127 15.08847826 67282,6917.856,95.437,540.556,538.887,0.0
51125.0,STARLINK-3387,PAYLOAD,2023-04-06 07:09:28,15.08848423,0.000121,53.217,55.3199,102.6896,257.4232,0.0002535,3.75e-05,0.0,0 STARLINK-3387,1 51125U 22005X   23096.29824761  .00003750  00000-0  25350-3 0  9995,2 51125  53.2170  55.3199 0001210 102.6896 257.4232 15.08848423 68554,6917.855,95.437,540.557,538.883,0.0
51125.0,STARLINK-3387,PAYLOAD,2023-04-06 21:27:57,15.08837953,0.0001432,53.2168,52.6437,110.9987,249.1159,0.00010912,1.449e-05,0.0,0 STARLINK-3387,1 51125U 22005X   23096.89441287  .00001449  00000-0  10912-3 0  9990,2 51125  53.2168  52.6437 0001432 110.9987 249.1159 15.08837953 68647,6917.887,95.438,540.742,538.761,0.0
